From: horizons@ssd.jpl.nasa.gov (Horizons Ephemeris System)
Subject: [Horizons] SMALL BODY #C(500@10)_T(Barnard (D/1884 O1)) (1/1)
Date: March 1, 2021 at 1:23:13 PM PST

Automated mail xmit by MAIL_REQUEST, PID= 2301 Mon Mar  1 13:23:13 2021
++++++++++++++++++++++++++++++++ (part 1 of 1)  +++++++++++++++++++++++++++++++
*******************************************************************************
JPL/HORIZONS                 Barnard (D/1884 O1)           2021-Mar-01 13:23:13
Rec #:90001640 (+COV) Soln.date: 2020-Nov-11_11:11:30       # obs: 19 (89 days)

IAU76/J2000 helio. ecliptic osc. elements (au, days, deg., period=Julian yrs):

 EPOCH=  2409411.5 ! 1884-Aug-23.0000000 (TDB)    RMSW= n.a.
  EC= .5835943516873249   QR= 1.279598209060342   TP= 2409405.4729341888
  OM= 6.750708428287171   W= 301.0537628492638    IN= 5.473222587196599
  A= 3.072960739714807    MA= 1.102743457920774   ADIST= 4.866323270369271
  PER= 5.3869597663504    N= .182965221           ANGMOM= .024487262
  DAN= 1.55749            DDN= 2.89912            L= 307.9203045
  B= -4.6869175           MOID= .28009            TP= 1884-Aug-16.9729341888

Comet physical (GM= km^3/s^2; RAD= km):
  GM= n.a.                RAD= n.a.
  M1=  n.a.     M2=  n.a.     k1= n.a.    k2= n.a.     PHCOF= n.a.

COMET comments 
1: soln ref.= JPL#1, data arc: 1884-07-26 to 1884-10-23
2:  
*******************************************************************************


*******************************************************************************
Ephemeris / MAIL_REQUEST Mon Mar  1 13:23:13 2021 Pasadena, USA  / Horizons
*******************************************************************************
Target body name: Barnard (D/1884 O1)             {source: JPL#1}
Center body name: Sun (10)                        {source: DE431}
Center-site name: BODY CENTER
*******************************************************************************
Start time      : A.D. 1990-Jan-01 00:00:00.0000 TDB
Stop  time      : A.D. 2020-Dec-31 00:00:00.0000 TDB
Step-size       : 10080 minutes
*******************************************************************************
Center geodetic : 0.00000000,0.00000000,0.0000000 {E-lon(deg),Lat(deg),Alt(km)}
Center cylindric: 0.00000000,0.00000000,0.0000000 {E-lon(deg),Dxy(km),Dz(km)}
Center radii    : 696000.0 x 696000.0 x 696000.0 k{Equator, meridian, pole}    
Small perturbers: Yes                             {source: SB431-N16}
Output units    : AU-D
Output type     : GEOMETRIC cartesian states
Output format   : 6 (LT, range, and range-rate)
Reference frame : Ecliptic of J2000.0
*******************************************************************************
Initial IAU76/J2000 heliocentric ecliptic osculating elements (au, days, deg.):
 EPOCH=  2409411.5 ! 1884-Aug-23.0000000 (TDB)    RMSW= n.a.                  
  EC= .5835943516873249   QR= 1.279598209060342   TP= 2409405.4729341888      
  OM= 6.750708428287171   W= 301.0537628492638    IN= 5.473222587196599       
 Equivalent ICRF heliocentric equatorial cartesian coordinates (au, au/d):
  X= 8.728414830907774E-01  Y=-8.168829755275056E-01  Z=-4.616512446423823E-01
 VX= 1.442102053705877E-02 VY= 1.106878977306553E-02 VZ= 5.919294105627524E-03
Comet physical (GM= km^3/s^2; RAD= km):                                        
  GM= n.a.                RAD= n.a.                                           
  M1=  n.a.     M2=  n.a.     k1= n.a.    k2= n.a.     PHCOF= n.a.            
*******************************************************************************
           JDTDB,            Calendar Date (TDB),                     LT,                     RG,                     RR,
**************************************************************************************************************************
$$SOE
2452442.500000000, A.D. 2002-Jun-17 00:00:00.0000,  2.692113805063827E-02,  4.661250558950277E+00, -1.642161605998018E-03,
2452449.500000000, A.D. 2002-Jun-24 00:00:00.0000,  2.685365460942885E-02,  4.649566163310480E+00, -1.696264910645852E-03,
2452456.500000000, A.D. 2002-Jul-01 00:00:00.0000,  2.678398043857338E-02,  4.637502454590828E+00, -1.750537785291882E-03,
2452463.500000000, A.D. 2002-Jul-08 00:00:00.0000,  2.671210855374326E-02,  4.625058223492310E+00, -1.804986767076817E-03,
2452470.500000000, A.D. 2002-Jul-15 00:00:00.0000,  2.663803168692774E-02,  4.612232211597880E+00, -1.859619253338566E-03,
2452477.500000000, A.D. 2002-Jul-22 00:00:00.0000,  2.656174228225179E-02,  4.599023110648324E+00, -1.914441631301314E-03,
2452484.500000000, A.D. 2002-Jul-29 00:00:00.0000,  2.648323257027146E-02,  4.585429575406131E+00, -1.969458344209989E-03,
2452491.500000000, A.D. 2002-Aug-05 00:00:00.0000,  2.640249459672892E-02,  4.571450228634244E+00, -2.024674470275191E-03,
2452498.500000000, A.D. 2002-Aug-12 00:00:00.0000,  2.631952017497948E-02,  4.557083652859080E+00, -2.080096306547242E-03,
2452505.500000000, A.D. 2002-Aug-19 00:00:00.0000,  2.623430085292470E-02,  4.542328384645156E+00, -2.135730586734017E-03,
2452512.500000000, A.D. 2002-Aug-26 00:00:00.0000,  2.614682790388964E-02,  4.527182913015550E+00, -2.191584137608215E-03,
2452519.500000000, A.D. 2002-Sep-02 00:00:00.0000,  2.605709232447551E-02,  4.511645679080081E+00, -2.247663820543026E-03,
2452526.500000000, A.D. 2002-Sep-09 00:00:00.0000,  2.596508483315349E-02,  4.495715075791850E+00, -2.303976534936259E-03,
2452533.500000000, A.D. 2002-Sep-16 00:00:00.0000,  2.587079586844069E-02,  4.479389447631417E+00, -2.360529235413601E-03,
2452540.500000000, A.D. 2002-Sep-23 00:00:00.0000,  2.577421558564000E-02,  4.462667090042320E+00, -2.417328998175618E-03,
2452547.500000000, A.D. 2002-Sep-30 00:00:00.0000,  2.567533384786910E-02,  4.445546247877785E+00, -2.474383268534912E-03,
2452554.500000000, A.D. 2002-Oct-07 00:00:00.0000,  2.557414020120635E-02,  4.428025111097395E+00, -2.531700362671421E-03,
2452561.500000000, A.D. 2002-Oct-14 00:00:00.0000,  2.547062384113854E-02,  4.410101808957680E+00, -2.589289019330666E-03,
2452568.500000000, A.D. 2002-Oct-21 00:00:00.0000,  2.536477364223303E-02,  4.391774415149691E+00, -2.647156061289306E-03,
2452575.500000000, A.D. 2002-Oct-28 00:00:00.0000,  2.525657823767665E-02,  4.373040961570737E+00, -2.705307095460519E-03,
2452582.500000000, A.D. 2002-Nov-04 00:00:00.0000,  2.514602601565094E-02,  4.353899437696774E+00, -2.763748775765427E-03,
2452589.500000000, A.D. 2002-Nov-11 00:00:00.0000,  2.503310507662237E-02,  4.334347783187441E+00, -2.822488540137424E-03,
2452596.500000000, A.D. 2002-Nov-18 00:00:00.0000,  2.491780321609225E-02,  4.314383884899298E+00, -2.881533974612510E-03,
2452603.500000000, A.D. 2002-Nov-25 00:00:00.0000,  2.480010792369063E-02,  4.294005576728932E+00, -2.940892612121259E-03,
2452610.500000000, A.D. 2002-Dec-02 00:00:00.0000,  2.468000638621708E-02,  4.273210640139462E+00, -3.000571899669305E-03,
2452617.500000000, A.D. 2002-Dec-09 00:00:00.0000,  2.455748549114006E-02,  4.251996804766433E+00, -3.060579199332145E-03,
2452624.500000000, A.D. 2002-Dec-16 00:00:00.0000,  2.443253182971212E-02,  4.230361748957189E+00, -3.120921810272742E-03,
2452631.500000000, A.D. 2002-Dec-23 00:00:00.0000,  2.430513169778838E-02,  4.208303099912604E+00, -3.181607081037023E-03,
2452638.500000000, A.D. 2002-Dec-30 00:00:00.0000,  2.417527108729478E-02,  4.185818432209838E+00, -3.242642794711412E-03,
2452645.500000000, A.D. 2003-Jan-06 00:00:00.0000,  2.404293565740375E-02,  4.162905262811568E+00, -3.304037637693530E-03,
2452652.500000000, A.D. 2003-Jan-13 00:00:00.0000,  2.390811071560679E-02,  4.139561047788807E+00, -3.365799868778194E-03,
2452659.500000000, A.D. 2003-Jan-20 00:00:00.0000,  2.377078128259432E-02,  4.115783193554503E+00, -3.427935428577513E-03,
2452666.500000000, A.D. 2003-Jan-27 00:00:00.0000,  2.363093215428811E-02,  4.091569067604109E+00, -3.490449966492511E-03,
2452673.500000000, A.D. 2003-Feb-03 00:00:00.0000,  2.348854787692054E-02,  4.066915994200715E+00, -3.553350154434524E-03,
2452680.500000000, A.D. 2003-Feb-10 00:00:00.0000,  2.334361271622800E-02,  4.041821249041024E+00, -3.616643083865436E-03,
2452687.500000000, A.D. 2003-Feb-17 00:00:00.0000,  2.319611065086459E-02,  4.016282058114983E+00, -3.680335827503179E-03,
2452694.500000000, A.D. 2003-Feb-24 00:00:00.0000,  2.304602537627468E-02,  3.990295598376301E+00, -3.744435313441193E-03,
2452701.500000000, A.D. 2003-Mar-03 00:00:00.0000,  2.289334031142556E-02,  3.963858998908157E+00, -3.808948286007201E-03,
2452708.500000000, A.D. 2003-Mar-10 00:00:00.0000,  2.273803860680377E-02,  3.936969342307733E+00, -3.873881278695757E-03,
2452715.500000000, A.D. 2003-Mar-17 00:00:00.0000,  2.258010315315591E-02,  3.909623666199637E+00, -3.939240613221240E-03,
2452722.500000000, A.D. 2003-Mar-24 00:00:00.0000,  2.241951658801293E-02,  3.881818964365536E+00, -4.005032542695726E-03,
2452729.500000000, A.D. 2003-Mar-31 00:00:00.0000,  2.225626128969638E-02,  3.853552185706396E+00, -4.071263745015486E-03,
2452736.500000000, A.D. 2003-Apr-07 00:00:00.0000,  2.209031935301086E-02,  3.824820230033728E+00, -4.137941412828287E-03,
2452743.500000000, A.D. 2003-Apr-14 00:00:00.0000,  2.192167260720692E-02,  3.795619951179799E+00, -4.205071013351915E-03,
2452750.500000000, A.D. 2003-Apr-21 00:00:00.0000,  2.175030271559692E-02,  3.765948174245561E+00, -4.272655599663601E-03,
2452757.500000000, A.D. 2003-Apr-28 00:00:00.0000,  2.157619122570360E-02,  3.735801704283618E+00, -4.340698122260575E-03,
2452764.500000000, A.D. 2003-May-05 00:00:00.0000,  2.139931955995491E-02,  3.705177324687080E+00, -4.409201702202570E-03,
2452771.500000000, A.D. 2003-May-12 00:00:00.0000,  2.121966902355996E-02,  3.674071798553245E+00, -4.478168921480161E-03,
2452778.500000000, A.D. 2003-May-19 00:00:00.0000,  2.103722083542199E-02,  3.642481874036016E+00, -4.547601423933337E-03,
2452785.500000000, A.D. 2003-May-26 00:00:00.0000,  2.085195617062520E-02,  3.610404291702259E+00, -4.617499703204438E-03,
